NORAD_CAT_ID,OBJECT_NAME,OBJECT_TYPE,EPOCH,MEAN_MOTION,ECCENTRICITY,INCLINATION,RA_OF_ASC_NODE,ARG_OF_PERICENTER,MEAN_ANOMALY,BSTAR,MEAN_MOTION_DOT,MEAN_MOTION_DDOT,TLE_LINE0,TLE_LINE1,TLE_LINE2,SEMIMAJOR_AXIS,PERIOD,APOGEE,PERIGEE,DECAYED
52457.0,STARLINK-3899,PAYLOAD,2024-01-08 07:45:40,15.08846678,0.0001581,53.2179,21.6902,89.8031,270.3142,0.00010208,1.337e-05,0.0,0 STARLINK-3899,1 52457U 22049G   24008.32338673  .00001337  00000-0  10208-3 0  9997,2 52457  53.2179  21.6902 0001581  89.8031 270.3142 15.08846678 92807,6917.86,95.437,540.819,538.631,0.0
52457.0,STARLINK-3899,PAYLOAD,2024-01-08 20:28:46,15.08837956,0.0001726,53.2175,19.315,97.7602,262.3586,0.00010218,1.338e-05,0.0,0 STARLINK-3899,1 52457U 22049G   24008.85331125  .00001338  00000-0  10218-3 0  9992,2 52457  53.2175  19.3150 0001726  97.7602 262.3586 15.08837956 92728,6917.887,95.438,540.946,538.558,0.0
52457.0,STARLINK-3899,PAYLOAD,2024-01-09 04:25:41,15.08837511,0.0001683,53.2172,17.8268,97.3209,262.7974,6.2097e-05,7e-06,0.0,0 STARLINK-3899,1 52457U 22049G   24009.18451202  .00000700  00000-0  62097-4 0  9993,2 52457  53.2172  17.8268 0001683  97.3209 262.7974 15.08837511 92934,6917.888,95.438,540.917,538.589,0.0
52457.0,STARLINK-3899,PAYLOAD,2024-01-09 06:01:04,15.08838731,0.0001722,53.2173,17.5303,96.4624,263.6564,6.4658e-05,7.41e-06,0.0,0 STARLINK-3899,1 52457U 22049G   24009.25075154  .00000741  00000-0  64658-4 0  9999,2 52457  53.2173  17.5303 0001722  96.4624 263.6564 15.08838731 92780,6917.884,95.438,540.941,538.558,0.0
52457.0,STARLINK-3899,PAYLOAD,2024-01-10 05:51:52,15.08840987,0.0001728,53.2177,13.0726,98.0119,262.1069,6.104e-05,6.84e-06,0.0,0 STARLINK-3899,1 52457U 22049G   24010.24435204  .00000684  00000-0  61040-4 0  9994,2 52457  53.2177  13.0726 0001728  98.0119 262.1069 15.08840987 93092,6917.877,95.437,540.938,538.547,0.0
52457.0,STARLINK-3899,PAYLOAD,2024-01-10 09:02:38,15.0884332,0.0001725,53.2177,12.4781,97.2142,262.9046,9.2459e-05,1.184e-05,0.0,0 STARLINK-3899,1 52457U 22049G   24010.37683078  .00001184  00000-0  92459-4 0  9996,2 52457  53.2177  12.4781 0001725  97.2142 262.9046 15.08843320 92951,6917.87,95.437,540.929,538.542,0.0
52457.0,STARLINK-3899,PAYLOAD,2024-01-11 08:53:25,15.08845715,0.000168,53.2178,8.0132,86.1298,273.9886,0.00018057,2.587e-05,0.0,0 STARLINK-3899,1 52457U 22049G   24011.37043198  .00002587  00000-0  18057-3 0  9999,2 52457  53.2178   8.0132 0001680  86.1298 273.9886 15.08845715 93261,6917.863,95.437,540.89,538.566,0.0
52457.0,STARLINK-3899,PAYLOAD,2024-01-12 03:58:03,15.08838917,0.0001744,53.2179,4.4456,81.565,278.554,5.5056e-05,5.88e-06,0.0,0 STARLINK-3899,1 52457U 22049G   24012.16531751  .00000588  00000-0  55056-4 0  9994,2 52457  53.2179   4.4456 0001744  81.5650 278.5540 15.08838917 93380,6917.884,95.438,540.955,538.542,0.0
52457.0,STARLINK-3899,PAYLOAD,2024-01-12 08:44:12,15.08847331,0.000175,53.2184,3.5481,95.9319,264.1872,0.00019604,2.834e-05,0.0,0 STARLINK-3899,1 52457U 22049G   24012.36403060  .00002834  00000-0  19604-3 0  9991,2 52457  53.2184   3.5481 0001750  95.9319 264.1872 15.08847331 93415,6917.858,95.437,540.934,538.512,0.0
52457.0,STARLINK-3899,PAYLOAD,2024-01-13 03:48:50,15.08843976,0.0001937,53.2199,359.9741,97.2119,262.9093,4.1469e-05,3.72e-06,0.0,0 STARLINK-3899,1 52457U 22049G   24013.15891451  .00000372  00000-0  41469-4 0  9994,2 52457  53.2199 359.9741 0001937  97.2119 262.9093 15.08843976 93533,6917.868,95.437,541.073,538.393,0.0
52457.0,STARLINK-3899,PAYLOAD,2024-01-14 05:15:00,15.08840688,0.0001787,53.2188,355.2156,108.8073,251.3113,9.0517e-05,1.153e-05,0.0,0 STARLINK-3899,1 52457U 22049G   24014.21875702  .00001153  00000-0  90517-4 0  9999,2 52457  53.2188 355.2156 0001787 108.8073 251.3113 15.08840688 93690,6917.878,95.438,540.98,538.507,0.0
52457.0,STARLINK-3899,PAYLOAD,2024-01-14 08:25:46,15.08840893,0.0001956,53.2193,354.6242,116.1635,243.9558,8.4959e-05,1.064e-05,0.0,0 STARLINK-3899,1 52457U 22049G   24014.35123684  .00001064  00000-0  84959-4 0  9993,2 52457  53.2193 354.6242 0001956 116.1635 243.9558 15.08840893 93552,6917.878,95.437,541.096,538.39,0.0
52457.0,STARLINK-3899,PAYLOAD,2024-01-15 08:16:33,15.08850666,0.0001456,53.2172,350.1663,97.2428,262.873,0.00028595,4.267e-05,0.0,0 STARLINK-3899,1 52457U 22049G   24015.34483305  .00004267  00000-0  28595-3 0  9993,2 52457  53.2172 350.1663 0001456  97.2428 262.8730 15.08850666 93866,6917.848,95.437,540.72,538.706,0.0
52457.0,STARLINK-3899,PAYLOAD,2024-01-15 22:35:02,15.08834052,0.0001484,53.2183,347.4853,103.9764,256.1394,-2.5991e-05,-7.02e-06,0.0,0 STARLINK-3899,1 52457U 22049G   24015.94100002 -.00000702  00000-0 -25991-4 0  9999,2 52457  53.2183 347.4853 0001484 103.9764 256.1394 15.08834052 93792,6917.899,95.438,540.79,538.737,0.0
52457.0,STARLINK-3899,PAYLOAD,2024-01-16 01:45:48,15.08839044,0.0001469,53.2173,346.8926,92.1533,267.9628,1.4222e-05,-6.2e-07,0.0,0 STARLINK-3899,1 52457U 22049G   24016.07348007 -.00000062  00000-0  14222-4 0  9996,2 52457  53.2173 346.8926 0001469  92.1533 267.9628 15.08839044 93977,6917.883,95.438,540.765,538.732,0.0
52457.0,STARLINK-3899,PAYLOAD,2024-01-16 03:21:11,15.0884124,0.000147,53.2172,346.5973,98.5227,261.5932,7.4426e-05,8.97e-06,0.0,0 STARLINK-3899,1 52457U 22049G   24016.13971957  .00000897  00000-0  74426-4 0  9996,2 52457  53.2172 346.5973 0001470  98.5227 261.5932 15.08841240 93820,6917.877,95.437,540.759,538.725,0.0
52457.0,STARLINK-3899,PAYLOAD,2024-01-17 03:11:58,15.08844495,0.000149,53.217,342.1377,94.7693,265.347,5.9474e-05,6.59e-06,0.0,0 STARLINK-3899,1 52457U 22049G   24017.13331837  .00000659  00000-0  59474-4 0  9996,2 52457  53.2170 342.1377 0001490  94.7693 265.3470 15.08844495 94134,6917.867,95.437,540.762,538.701,0.0
52457.0,STARLINK-3899,PAYLOAD,2024-01-17 04:47:21,15.08845792,0.000147,53.2172,341.8414,97.7229,262.393,0.00016161,2.285e-05,0.0,0 STARLINK-3899,1 52457U 22049G   24017.19955815  .00002285  00000-0  16161-3 0  9992,2 52457  53.2172 341.8414 0001470  97.7229 262.3930 15.08845792 93981,6917.863,95.437,540.745,538.711,0.0
52457.0,STARLINK-3899,PAYLOAD,2024-01-18 03:02:46,15.08839847,0.0001493,53.217,337.6782,100.404,259.712,9.348e-05,1.2e-05,0.0,0 STARLINK-3899,1 52457U 22049G   24018.12692298  .00001200  00000-0  93480-4 0  9995,2 52457  53.2170 337.6782 0001493 100.4040 259.7120 15.08839847 94287,6917.881,95.438,540.779,538.713,0.0
52457.0,STARLINK-3899,PAYLOAD,2024-01-18 06:13:32,15.08844086,0.0001514,53.2172,337.0837,91.5702,268.5464,0.00015125,2.12e-05,0.0,0 STARLINK-3899,1 52457U 22049G   24018.25940151  .00002120  00000-0  15125-3 0  9994,2 52457  53.2172 337.0837 0001514  91.5702 268.5464 15.08844086 94148,6917.868,95.437,540.78,538.686,0.0
52457.0,STARLINK-3899,PAYLOAD,2024-01-19 06:04:19,15.08851668,0.0001814,53.2191,332.6163,101.025,259.0946,0.00022603,3.312e-05,0.0,0 STARLINK-3899,1 52457U 22049G   24019.25299880  .00003312  00000-0  22603-3 0  9994,2 52457  53.2191 332.6163 0001814 101.0250 259.0946 15.08851668 94458,6917.845,95.437,540.965,538.455,0.0
52457.0,STARLINK-3899,PAYLOAD,2024-01-19 20:22:48,15.08828177,0.000102,53.2173,329.9435,112.0666,248.0435,-0.00010682,-1.987e-05,0.0,0 STARLINK-3899,1 52457U 22049G   24019.84916952 -.00001987  00000-0 -10682-3 0  9997,2 52457  53.2173 329.9435 0001020 112.0666 248.0435 15.08828177 94541,6917.917,95.438,540.487,539.076,0.0
52457.0,STARLINK-3899,PAYLOAD,2024-01-20 02:44:20,15.08840019,0.0001867,53.2176,328.7592,108.999,251.1205,9.4622e-05,1.218e-05,0.0,0 STARLINK-3899,1 52457U 22049G   24020.11412681  .00001218  00000-0  94622-4 0  9991,2 52457  53.2176 328.7592 0001867 108.9990 251.1205 15.08840019 94581,6917.88,95.438,541.037,538.454,0.0
52457.0,STARLINK-3899,PAYLOAD,2024-01-21 05:45:53,15.08853198,0.0001775,53.2179,323.6986,88.9526,271.1669,0.00032312,4.86e-05,0.0,0 STARLINK-3899,1 52457U 22049G   24021.24020232  .00004860  00000-0  32312-3 0  9996,2 52457  53.2179 323.6986 0001775  88.9526 271.1669 15.08853198 94752,6917.84,95.437,540.933,538.477,0.0
52457.0,STARLINK-3899,PAYLOAD,2024-01-22 02:25:54,15.0884726,0.000168,53.217,319.8396,93.9022,266.2162,0.00021576,3.148e-05,0.0,0 STARLINK-3899,1 52457U 22049G   24022.10132519  .00003148  00000-0  21576-3 0  9992,2 52457  53.2170 319.8396 0001680  93.9022 266.2162 15.08847260 94887,6917.858,95.437,540.885,538.561,0.0
52457.0,STARLINK-3899,PAYLOAD,2024-01-23 02:16:41,15.08844159,0.0001856,53.2193,315.3735,96.377,263.7434,6.6948e-05,7.78e-06,0.0,0 STARLINK-3899,1 52457U 22049G   24023.09492563  .00000778  00000-0  66948-4 0  9998,2 52457  53.2193 315.3735 0001856  96.3770 263.7434 15.08844159 95038,6917.868,95.437,541.017,538.449,0.0
52457.0,STARLINK-3899,PAYLOAD,2024-01-23 22:56:42,15.08845174,0.0001656,53.2181,311.5127,106.8589,253.2585,0.00018385,2.64e-05,0.0,0 STARLINK-3899,1 52457U 22049G   24023.95604629  .00002640  00000-0  18385-3 0  9992,2 52457  53.2181 311.5127 0001656 106.8589 253.2585 15.08845174 95007,6917.865,95.437,540.875,538.584,0.0
52457.0,STARLINK-3899,PAYLOAD,2024-01-24 02:07:28,15.0884834,0.0001625,53.2178,310.9176,105.2164,254.9008,0.00022895,3.358e-05,0.0,0 STARLINK-3899,1 52457U 22049G   24024.08852490  .00003358  00000-0  22895-3 0  9996,2 52457  53.2178 310.9176 0001625 105.2164 254.9008 15.08848340 95026,6917.855,95.437,540.844,538.596,0.0
52457.0,STARLINK-3899,PAYLOAD,2024-01-24 22:47:29,15.08840712,0.0001724,53.2182,307.0559,115.038,245.0791,8.4749e-05,1.061e-05,0.0,0 STARLINK-3899,1 52457U 22049G   24024.94964855  .00001061  00000-0  84749-4 0  9996,2 52457  53.2182 307.0559 0001724 115.0380 245.0791 15.08840712 95151,6917.878,95.438,540.936,538.551,0.0
52457.0,STARLINK-3899,PAYLOAD,2024-01-25 00:22:52,15.08840999,0.0001741,53.2184,306.7577,115.6916,244.4256,8.3299e-05,1.038e-05,0.0,0 STARLINK-3899,1 52457U 22049G   24025.01588820  .00001038  00000-0  83299-4 0  9992,2 52457  53.2184 306.7577 0001741 115.6916 244.4256 15.08840999 95324,6917.877,95.437,540.947,538.538,0.0
